start=new Date('2023-02-20T00:00:00.000Z').valueOf();
sats=[{"SITE":"AFETR","CENTER_NAME":"EARTH","SEMIMAJOR_AXIS":"6925.087","CLASSIFICATION_TYPE":"U","TLE_LINE1":"1 45367U 20019H   23050.68319866  .00027482  00000-0  18524-2 0  9999","OBJECT_TYPE":"PAYLOAD","DECAY_DATE":null,"TLE_LINE2":"2 45367  53.0529 127.5898 0001384  83.3454 276.7693 15.06485423161820","OBJECT_NAME":"STARLINK-1273","INCLINATION":"53.0529","MEAN_ELEMENT_THEORY":"SGP4","APOAPSIS":"547.910","ECCENTRICITY":"0.00013840","EPHEMERIS_TYPE":"0","REF_FRAME":"TEME","NORAD_CAT_ID":"45367","FILE":"3812963","RCS_SIZE":"LARGE","COUNTRY_CODE":"US","MEAN_MOTION_DDOT":"0.0000000000000","ARG_OF_PERICENTER":"83.3454","MEAN_MOTION":"15.06485423","LAUNCH_DATE":"2020-03-18","EPOCH":"2023-02-19T16:23:48.364224","MEAN_ANOMALY":"276.7693","BSTAR":"0.00185240000000","TIME_SYSTEM":"UTC","GP_ID":"226076870","REV_AT_EPOCH":"16182","PERIAPSIS":"545.993","ELEMENT_SET_NO":"999","MEAN_MOTION_DOT":"0.00027482","PERIOD":"95.587","RA_OF_ASC_NODE":"127.5898","OBJECT_ID":"2020-019H"},{"APOAPSIS":"548.431","ECCENTRICITY":"0.00016650","EPHEMERIS_TYPE":"0","FILE":"3812963","RCS_SIZE":"LARGE","REF_FRAME":"TEME","NORAD_CAT_ID":"45368","COUNTRY_CODE":"US","MEAN_MOTION_DDOT":"0.0000000000000","SITE":"AFETR","CENTER_NAME":"EARTH","SEMIMAJOR_AXIS":"6925.413","CLASSIFICATION_TYPE":"U","TLE_LINE1":"1 45368U 20019J   23050.91912058 -.00032983  00000-0 -22069-2 0  9991","OBJECT_TYPE":"PAYLOAD","TLE_LINE2":"2 45368  53.0514 126.5318 0001665  75.3814 284.7359 15.06378972161866","DECAY_DATE":null,"MEAN_ELEMENT_THEORY":"SGP4","INCLINATION":"53.0514","OBJECT_NAME":"STARLINK-1276","GP_ID":"226076875","MEAN_MOTION_DOT":"-0.00032983","PERIAPSIS":"546.125","REV_AT_EPOCH":"16186","ELEMENT_SET_NO":"999","RA_OF_ASC_NODE":"126.5318","PERIOD":"95.593","OBJECT_ID":"2020-019J","ARG_OF_PERICENTER":"75.3814","MEAN_MOTION":"15.06378972","EPOCH":"2023-02-19T22:03:32.018112","LAUNCH_DATE":"2020-03-18","BSTAR":"-0.00220690000000","MEAN_ANOMALY":"284.7359","TIME_SYSTEM":"UTC"},{"GP_ID":"226076879","OBJECT_ID":"2020-019K","RA_OF_ASC_NODE":"126.5329","PERIOD":"95.591","PERIAPSIS":"545.819","REV_AT_EPOCH":"16186","ELEMENT_SET_NO":"999","MEAN_MOTION_DOT":"0.00008146","LAUNCH_DATE":"2020-03-18","EPOCH":"2023-02-19T22:02:15.624096","MEAN_MOTION":"15.06412451","ARG_OF_PERICENTER":"86.7275","TIME_SYSTEM":"UTC","MEAN_ANOMALY":"273.3938","BSTAR":"0.00056496000000","NORAD_CAT_ID":"45369","REF_FRAME":"TEME","FILE":"3812963","RCS_SIZE":"LARGE","EPHEMERIS_TYPE":"0","ECCENTRICITY":"0.00019580","APOAPSIS":"548.531","MEAN_MOTION_DDOT":"0.0000000000000","COUNTRY_CODE":"US","CLASSIFICATION_TYPE":"U","SEMIMAJOR_AXIS":"6925.310","SITE":"AFETR","CENTER_NAME":"EARTH","OBJECT_NAME":"STARLINK-1277","MEAN_ELEMENT_THEORY":"SGP4","INCLINATION":"53.0526","DECAY_DATE":null,"TLE_LINE2":"2 45369  53.0526 126.5329 0001958  86.7275 273.3938 15.06412451161862","TLE_LINE1":"1 45369U 20019K   23050.91823639  .00008146  00000-0  56496-3 0  9992","OBJECT_TYPE":"PAYLOAD"},{"PERIAPSIS":"545.848","ELEMENT_SET_NO":"999","REV_AT_EPOCH":"16183","MEAN_MOTION_DOT":"-0.00005511","OBJECT_ID":"2020-019L","PERIOD":"95.594","RA_OF_ASC_NODE":"126.5804","GP_ID":"226077369","MEAN_ANOMALY":"274.9229","BSTAR":"-0.00035169000000","TIME_SYSTEM":"UTC","ARG_OF_PERICENTER":"85.2003","LAUNCH_DATE":"2020-03-18","EPOCH":"2023-02-19T21:47:40.600320","MEAN_MOTION":"15.06363853","MEAN_MOTION_DDOT":"0.0000000000000","COUNTRY_CODE":"US","ECCENTRICITY":"0.00021320","APOAPSIS":"548.801","NORAD_CAT_ID":"45370","REF_FRAME":"TEME","RCS_SIZE":"LARGE","FILE":"3812963","EPHEMERIS_TYPE":"0","DECAY_DATE":null,"TLE_LINE2":"2 45370  53.0514 126.5804 0002132  85.2003 274.9229 15.06363853161835","OBJECT_TYPE":"PAYLOAD","TLE_LINE1":"1 45370U 20019L   23050.90810880 -.00005511  00000-0 -35169-3 0  9996","OBJECT_NAME":"STARLINK-1281","MEAN_ELEMENT_THEORY":"SGP4","INCLINATION":"53.0514","SITE":"AFETR","CENTER_NAME":"EARTH","CLASSIFICATION_TYPE":"U","SEMIMAJOR_AXIS":"6925.459"},{"TIME_SYSTEM":"UTC","BSTAR":"0.00062710000000","MEAN_ANOMALY":"274.4758","MEAN_MOTION":"15.06403109","EPOCH":"2023-02-19T22:28:45.937920","LAUNCH_DATE":"2020-03-18","ARG_OF_PERICENTER":"85.6356","RA_OF_ASC_NODE":"126.4410","PERIOD":"95.592","OBJECT_ID":"2020-019M","MEAN_MOTION_DOT":"0.00009072","ELEMENT_SET_NO":"999","PERIAPSIS":"546.444","REV_AT_EPOCH":"16186","GP_ID":"226076890","MEAN_ELEMENT_THEORY":"SGP4","INCLINATION":"53.0526","OBJECT_NAME":"STARLINK-1287","TLE_LINE1":"1 45371U 20019M   23050.93664280  .00009072  00000-0  62710-3 0  9997","OBJECT_TYPE":"PAYLOAD","TLE_LINE2":"2 45371  53.0526 126.4410 0001098  85.6356 274.4758 15.06403109161860","DECAY_DATE":null,"SEMIMAJOR_AXIS":"6925.339","CLASSIFICATION_TYPE":"U","SITE":"AFETR","CENTER_NAME":"EARTH","COUNTRY_CODE":"US","MEAN_MOTION_DDOT":"0.0000000000000","EPHEMERIS_TYPE":"0","RCS_SIZE":"LARGE","FILE":"3812975","REF_FRAME":"TEME","NORAD_CAT_ID":"45371","APOAPSIS":"547.964","ECCENTRICITY":"0.00010980"},{"EPHEMERIS_TYPE":"0","RCS_SIZE":"LARGE","FILE":"3811610","REF_FRAME":"TEME","NORAD_CAT_ID":"45372","APOAPSIS":"548.211","ECCENTRICITY":"0.00016380","COUNTRY_CODE":"US","MEAN_MOTION_DDOT":"0.0000000000000","SEMIMAJOR_AXIS":"6925.212","CLASSIFICATION_TYPE":"U","SITE":"AFETR","CENTER_NAME":"EARTH","MEAN_ELEMENT_THEORY":"SGP4","INCLINATION":"53.0546","OBJECT_NAME":"STARLINK-1288","OBJECT_TYPE":"PAYLOAD","TLE_LINE1":"1 45372U 20019N   23050.48789008  .00027910  00000-0  18829-2 0  9996","TLE_LINE2":"2 45372  53.0546 128.4631 0001638  82.4247 277.6928 15.06444697161797","DECAY_DATE":null,"GP_ID":"226043270","PERIOD":"95.589","RA_OF_ASC_NODE":"128.4631","OBJECT_ID":"2020-019N","MEAN_MOTION_DOT":"0.00027910","PERIAPSIS":"545.942","REV_AT_EPOCH":"16179","ELEMENT_SET_NO":"999","MEAN_MOTION":"15.06444697","EPOCH":"2023-02-19T11:42:33.702912","LAUNCH_DATE":"2020-03-18","ARG_OF_PERICENTER":"82.4247","TIME_SYSTEM":"UTC","BSTAR":"0.00188290000000","MEAN_ANOMALY":"277.6928"},{"OBJECT_TYPE":"PAYLOAD","TLE_LINE1":"1 45373U 20019P   23050.93389590  .00005868  00000-0  41240-3 0  9991","TLE_LINE2":"2 45373  53.0551 126.4652 0001250  87.1629 272.9503 15.06410203161862","DECAY_DATE":null,"MEAN_ELEMENT_THEORY":"SGP4","INCLINATION":"53.0551","OBJECT_NAME":"STARLINK-1295","SITE":"AFETR","CENTER_NAME":"EARTH","SEMIMAJOR_AXIS":"6925.317","CLASSIFICATION_TYPE":"U","COUNTRY_CODE":"US","MEAN_MOTION_DDOT":"0.0000000000000","APOAPSIS":"548.048","ECCENTRICITY":"0.00012500","EPHEMERIS_TYPE":"0","RCS_SIZE":"LARGE","FILE":"3812757","REF_FRAME":"TEME","NORAD_CAT_ID":"45373","BSTAR":"0.00041240000000","MEAN_ANOMALY":"272.9503","TIME_SYSTEM":"UTC","ARG_OF_PERICENTER":"87.1629","MEAN_MOTION":"15.06410203","EPOCH":"2023-02-19T22:24:48.605760","LAUNCH_DATE":"2020-03-18","MEAN_MOTION_DOT":"0.00005868","ELEMENT_SET_NO":"999","PERIAPSIS":"546.317","REV_AT_EPOCH":"16186","PERIOD":"95.591","RA_OF_ASC_NODE":"126.4652","OBJECT_ID":"2020-019P","GP_ID":"226071687"},{"APOAPSIS":"548.525","ECCENTRICITY":"0.00019300","EPHEMERIS_TYPE":"0","NORAD_CAT_ID":"45374","REF_FRAME":"TEME","FILE":"3812982","RCS_SIZE":"LARGE","COUNTRY_CODE":"US","MEAN_MOTION_DDOT":"0.0000000000000","SITE":"AFETR","CENTER_NAME":"EARTH","SEMIMAJOR_AXIS":"6925.324","CLASSIFICATION_TYPE":"U","TLE_LINE1":"1 45374U 20019Q   23050.93020870 -.00002364  00000-0 -13984-3 0  9999","OBJECT_TYPE":"PAYLOAD","DECAY_DATE":null,"TLE_LINE2":"2 45374  53.0572 126.4781 0001930  74.8042 285.3160 15.06408062161863","OBJECT_NAME":"STARLINK-1300","INCLINATION":"53.0572","MEAN_ELEMENT_THEORY":"SGP4","GP_ID":"226077471","ELEMENT_SET_NO":"999","PERIAPSIS":"545.852","REV_AT_EPOCH":"16186","MEAN_MOTION_DOT":"-0.00002364","PERIOD":"95.592","RA_OF_ASC_NODE":"126.4781","OBJECT_ID":"2020-019Q","ARG_OF_PERICENTER":"74.8042","MEAN_MOTION":"15.06408062","LAUNCH_DATE":"2020-03-18","EPOCH":"2023-02-19T22:19:30.031680","MEAN_ANOMALY":"285.3160","BSTAR":"-0.00013984000000","TIME_SYSTEM":"UTC"},{"TIME_SYSTEM":"UTC","MEAN_ANOMALY":"295.0309","BSTAR":"0.00068238000000","LAUNCH_DATE":"2020-03-18","EPOCH":"2023-02-19T22:40:46.785216","MEAN_MOTION":"15.06411990","ARG_OF_PERICENTER":"65.0811","OBJECT_ID":"2020-019R","PERIOD":"95.591","RA_OF_ASC_NODE":"126.4129","PERIAPSIS":"546.302","ELEMENT_SET_NO":"999","REV_AT_EPOCH":"16186","MEAN_MOTION_DOT":"0.00009900","GP_ID":"226077515","OBJECT_NAME":"STARLINK-1302","INCLINATION":"53.0534","MEAN_ELEMENT_THEORY":"SGP4","DECAY_DATE":null,"TLE_LINE2":"2 45375  53.0534 126.4129 0001263  65.0811 295.0309 15.06411990161860","OBJECT_TYPE":"PAYLOAD","TLE_LINE1":"1 45375U 20019R   23050.94498594  .00009900  00000-0  68238-3 0  9996","CLASSIFICATION_TYPE":"U","SEMIMAJOR_AXIS":"6925.312","CENTER_NAME":"EARTH","SITE":"AFETR","MEAN_MOTION_DDOT":"0.0000000000000","COUNTRY_CODE":"US","REF_FRAME":"TEME","NORAD_CAT_ID":"45375","FILE":"3812984","RCS_SIZE":"LARGE","EPHEMERIS_TYPE":"0","ECCENTRICITY":"0.00012630","APOAPSIS":"548.051"},{"SEMIMAJOR_AXIS":"6925.393","CLASSIFICATION_TYPE":"U","SITE":"AFETR","CENTER_NAME":"EARTH","INCLINATION":"53.0553","MEAN_ELEMENT_THEORY":"SGP4","OBJECT_NAME":"STARLINK-1304","OBJECT_TYPE":"PAYLOAD","TLE_LINE1":"1 45376U 20019S   23050.89704357 -.00009727  00000-0 -63528-3 0  9994","TLE_LINE2":"2 45376  53.0553 126.6298 0000761 118.0980 242.0086 15.06385660161856","DECAY_DATE":null,"EPHEMERIS_TYPE":"0","FILE":"3812983","RCS_SIZE":"LARGE","NORAD_CAT_ID":"45376","REF_FRAME":"TEME","APOAPSIS":"547.785","ECCENTRICITY":"0.00007610","COUNTRY_CODE":"US","MEAN_MOTION_DDOT":"0.0000000000000","MEAN_MOTION":"15.06385660","EPOCH":"2023-02-19T21:31:44.564448","LAUNCH_DATE":"2020-03-18","ARG_OF_PERICENTER":"118.0980","TIME_SYSTEM":"UTC","BSTAR":"-0.00063528000000","MEAN_ANOMALY":"242.0086","GP_ID":"226077492","PERIOD":"95.593","RA_OF_ASC_NODE":"126.6298","OBJECT_ID":"2020-019S","MEAN_MOTION_DOT":"-0.00009727","PERIAPSIS":"546.730","REV_AT_EPOCH":"16185","ELEMENT_SET_NO":"999"}];
